0 ORBCOMM FM 32
1 25982U 99065C   13281.44619860  .00000382  00000-0  19889-3 0  8145
2 25982 045.0221 353.0806 0003091 043.6310 024.6941 14.30403194722564
0 ORBCOMM FM 32
1 25982U 99065C   13282.49655005  .00000503  00000-0  24492-3 0  8154
2 25982 045.0220 348.1635 0003076 050.4030 031.8655 14.30405906722718
0 ORBCOMM FM 32
1 25982U 99065C   13283.69756056  .00000517  00000-0  25032-3 0  8162
2 25982 045.0219 342.5412 0003052 058.1049 094.6722 14.30407176722887
0 ORBCOMM FM 32
1 25982U 99065C   13286.48782291  .00000336  00000-0  18158-3 0  8184
2 25982 045.0216 329.4788 0003027 075.2172 059.7546 14.30411846723283
0 ORBCOMM FM 32
1 25982U 99065C   13287.60628763  .00000389  00000-0  20166-3 0  8193
2 25982 045.0215 324.2427 0003025 081.5686 058.4552 14.30414016723446
0 ORBCOMM FM 32
1 25982U 99065C   13289.12308868  .00000373  00000-0  19547-3 0  8209
2 25982 045.0214 317.1417 0003057 090.7148 307.5780 14.30416657723663
0 ORBCOMM FM 32
1 25982U 99065C   13290.47251422  .00000487  00000-0  23883-3 0  8217
2 25982 045.0213 310.8244 0003108 098.6507 055.2006 14.30417527723859
0 ORBCOMM FM 32
1 25982U 99065C   13291.52262258  .00000591  00000-0  27836-3 0  8222
2 25982 045.0213 305.9083 0003147 104.7417 061.8557 14.30418104724001
0 ORBCOMM FM 32
1 25982U 99065C   13292.56699436  .00000745  00000-0  33740-3 0  8232
2 25982 045.0213 301.0190 0003190 110.5514 039.2258 14.30419026724155
0 ORBCOMM FM 32
1 25982U 99065C   13294.08359903  .00000859  00000-0  38049-3 0  8247
2 25982 045.0213 293.9191 0003258 118.3658 288.7037 14.30421857724370
0 ORBCOMM FM 32
1 25982U 99065C   13295.13051646  .00000881  00000-0  38894-3 0  8251
2 25982 045.0213 289.0180 0003328 124.2325 279.1469 14.30424151724529
